[{"OBJECT_NAME":"BEIDOU-2 IGSO-1 (C06)","OBJECT_ID":"2010-036A","EPOCH":"2026-03-02T01:43:31.988064","MEAN_MOTION":1.00252677,"ECCENTRICITY":0.00539654,"INCLINATION":54.2922,"RA_OF_ASC_NODE":163.9315,"ARG_OF_PERICENTER":219.0406,"MEAN_ANOMALY":268.0169,"EPHEMERIS_TYPE":0,"CLASSIFICATION_TYPE":"U","NORAD_CAT_ID":36828,"ELEMENT_SET_NO":999,"REV_AT_EPOCH":5702,"BSTAR":0,"MEAN_MOTION_DOT":-1.63e-6,"MEAN_MOTION_DDOT":0},{"OBJECT_NAME":"BEIDOU-2 IGSO-2 (C07)","OBJECT_ID":"2010-068A","EPOCH":"2026-03-02T06:48:48.911616","MEAN_MOTION":1.00259336,"ECCENTRICITY":0.00474188,"INCLINATION":47.7363,"RA_OF_ASC_NODE":273.1534,"ARG_OF_PERICENTER":212.8884,"MEAN_ANOMALY":243.4237,"EPHEMERIS_TYPE":0,"CLASSIFICATION_TYPE":"U","NORAD_CAT_ID":37256,"ELEMENT_SET_NO":999,"REV_AT_EPOCH":5572,"BSTAR":0,"MEAN_MOTION_DOT":-1.69e-6,"MEAN_MOTION_DDOT":0},{"OBJECT_NAME":"BEIDOU-2 IGSO-3 (C08)","OBJECT_ID":"2011-013A","EPOCH":"2026-02-27T21:48:44.352288","MEAN_MOTION":1.00294022,"ECCENTRICITY":0.00350296,"INCLINATION":62.2642,"RA_OF_ASC_NODE":41.1818,"ARG_OF_PERICENTER":190.8154,"MEAN_ANOMALY":358.7681,"EPHEMERIS_TYPE":0,"CLASSIFICATION_TYPE":"U","NORAD_CAT_ID":37384,"ELEMENT_SET_NO":999,"REV_AT_EPOCH":5456,"BSTAR":0,"MEAN_MOTION_DOT":-1.54e-6,"MEAN_MOTION_DDOT":0},{"OBJECT_NAME":"BEIDOU-2 IGSO-4 (C09)","OBJECT_ID":"2011-038A","EPOCH":"2026-03-01T18:02:04.372800","MEAN_MOTION":1.00265713,"ECCENTRICITY":0.0154411,"INCLINATION":54.5889,"RA_OF_ASC_NODE":166.6436,"ARG_OF_PERICENTER":230.9971,"MEAN_ANOMALY":126.927,"EPHEMERIS_TYPE":0,"CLASSIFICATION_TYPE":"U","NORAD_CAT_ID":37763,"ELEMENT_SET_NO":999,"REV_AT_EPOCH":5356,"BSTAR":0,"MEAN_MOTION_DOT":-1.33e-6,"MEAN_MOTION_DDOT":0},{"OBJECT_NAME":"BEIDOU-2 IGSO-5 (C10)","OBJECT_ID":"2011-073A","EPOCH":"2026-03-01T12:21:35.119584","MEAN_MOTION":1.00272949,"ECCENTRICITY":0.01085706,"INCLINATION":47.8731,"RA_OF_ASC_NODE":272.8747,"ARG_OF_PERICENTER":221.0681,"MEAN_ANOMALY":305.9392,"EPHEMERIS_TYPE":0,"CLASSIFICATION_TYPE":"U","NORAD_CAT_ID":37948,"ELEMENT_SET_NO":999,"REV_AT_EPOCH":5205,"BSTAR":0,"MEAN_MOTION_DOT":-1.33e-6,"MEAN_MOTION_DDOT":0},{"OBJECT_NAME":"BEIDOU-2 M3 (C11)","OBJECT_ID":"2012-018A","EPOCH":"2026-03-01T06:14:44.600352","MEAN_MOTION":1.86229696,"ECCENTRICITY":0.0021337,"INCLINATION":55.8494,"RA_OF_ASC_NODE":308.5146,"ARG_OF_PERICENTER":279.5762,"MEAN_ANOMALY":80.2419,"EPHEMERIS_TYPE":0,"CLASSIFICATION_TYPE":"U","NORAD_CAT_ID":38250,"ELEMENT_SET_NO":999,"REV_AT_EPOCH":9393,"BSTAR":0,"MEAN_MOTION_DOT":-5.0e-7,"MEAN_MOTION_DDOT":0},{"OBJECT_NAME":"BEIDOU-2 M4 (C12)","OBJECT_ID":"2012-018B","EPOCH":"2026-02-27T13:57:20.484576","MEAN_MOTION":1.86229541,"ECCENTRICITY":0.00130453,"INCLINATION":55.7521,"RA_OF_ASC_NODE":307.7944,"ARG_OF_PERICENTER":286.0559,"MEAN_ANOMALY":73.8564,"EPHEMERIS_TYPE":0,"CLASSIFICATION_TYPE":"U","NORAD_CAT_ID":38251,"ELEMENT_SET_NO":999,"REV_AT_EPOCH":9390,"BSTAR":0,"MEAN_MOTION_DOT":-4.5e-7,"MEAN_MOTION_DDOT":0},{"OBJECT_NAME":"BEIDOU-2 M6 (C14)","OBJECT_ID":"2012-050B","EPOCH":"2026-03-01T23:26:12.130656","MEAN_MOTION":1.86230866,"ECCENTRICITY":0.00139034,"INCLINATION":56.4507,"RA_OF_ASC_NODE":66.4378,"ARG_OF_PERICENTER":341.61,"MEAN_ANOMALY":18.3756,"EPHEMERIS_TYPE":0,"CLASSIFICATION_TYPE":"U","NORAD_CAT_ID":38775,"ELEMENT_SET_NO":999,"REV_AT_EPOCH":9131,"BSTAR":0,"MEAN_MOTION_DOT":-6.0e-8,"MEAN_MOTION_DDOT":0},{"OBJECT_NAME":"BEIDOU-3S IGSO-1S (C31)","OBJECT_ID":"2015-019A","EPOCH":"2026-03-02T15:38:40.335936","MEAN_MOTION":1.00274083,"ECCENTRICITY":0.0035828,"INCLINATION":49.3937,"RA_OF_ASC_NODE":296.7449,"ARG_OF_PERICENTER":190.3764,"MEAN_ANOMALY":4.4663,"EPHEMERIS_TYPE":0,"CLASSIFICATION_TYPE":"U","NORAD_CAT_ID":40549,"ELEMENT_SET_NO":999,"REV_AT_EPOCH":4000,"BSTAR":0,"MEAN_MOTION_DOT":-1.59e-6,"MEAN_MOTION_DDOT":0},{"OBJECT_NAME":"BEIDOU-3S M2S (C58)","OBJECT_ID":"2015-037A","EPOCH":"2026-03-02T11:17:21.961248","MEAN_MOTION":1.86231797,"ECCENTRICITY":0.00088978,"INCLINATION":54.9645,"RA_OF_ASC_NODE":305.7221,"ARG_OF_PERICENTER":278.296,"MEAN_ANOMALY":81.6638,"EPHEMERIS_TYPE":0,"CLASSIFICATION_TYPE":"U","NORAD_CAT_ID":40748,"ELEMENT_SET_NO":999,"REV_AT_EPOCH":7213,"BSTAR":0,"MEAN_MOTION_DOT":-5.1e-7,"MEAN_MOTION_DDOT":0},{"OBJECT_NAME":"BEIDOU-3 M1 (C19)","OBJECT_ID":"2017-069A","EPOCH":"2026-03-01T17:48:26.942400","MEAN_MOTION":1.86230886,"ECCENTRICITY":0.00123983,"INCLINATION":56.5988,"RA_OF_ASC_NODE":66.6221,"ARG_OF_PERICENTER":309.4779,"MEAN_ANOMALY":50.4494,"EPHEMERIS_TYPE":0,"CLASSIFICATION_TYPE":"U","NORAD_CAT_ID":43001,"ELEMENT_SET_NO":999,"REV_AT_EPOCH":5660,"BSTAR":0,"MEAN_MOTION_DOT":-3.0e-8,"MEAN_MOTION_DDOT":0}]
